COSMOS 2361 [-]         
1 25590U 98076A   15080.31444523  .00000066  00000-0  55665-4 0  9994
2 25590  82.9382   1.1529 0031781   2.9821 110.7165 13.72880211813573
COSMOS 2378 [-]         
1 26818U 01023A   15080.17485222  .00000072  00000-0  60897-4 0  9999
2 26818  82.9298  24.1735 0032396 320.7582  39.1207 13.73873022691078
COSMOS 2389 [-]         
1 27436U 02026A   15080.52832892  .00000080  00000-0  67615-4 0  9992
2 27436  82.9527 326.8511 0045991 193.1593 215.9446 13.74871890642979
COSMOS 2398 [-]         
1 27818U 03023A   15080.13898559  .00000082  00000-0  73265-4 0  9993
2 27818  82.9449 280.1753 0030820 194.6123 165.4154 13.72100133590617
COSMOS 2407 [+]         
1 28380U 04028A   15080.52030953  .00000074  00000-0  60776-4 0  9997
2 28380  82.9579 234.2823 0038448 210.5677 149.3228 13.75995392535401
COSMOS 2414 [+]         
1 28521U 05002A   15081.05114337  .00000109  00000-0  78235-4 0  9993
2 28521  82.9458 267.2301 0040814 149.1659 211.1908 13.87534300514825
COSMOS 2429 [-]         
1 32052U 07038A   15080.86440564 -.00000062  00000-0 -81140-4 0  9999
2 32052  82.9835 350.5905 0038234 174.9499 185.2052 13.74841273377605
COSMOS 2454 [-]         
1 35635U 09039A   15081.06711004  .00000115  00000-0  80825-4 0  9991
2 35635  82.9518 258.4926 0020474 119.4885 240.8325 13.89560372287438
COSMOS 2463 [+]         
1 36519U 10017A   15080.41251124  .00000019  00000-0  47978-5 0  9997
2 36519  82.9596  25.4514 0036338   2.6076 357.5256 13.71372379245243
